{
  "norad_id": 54005,
  "name": "STARLINK-5135",
  "history": [
    {
      "epoch": "2026-03-28T19:32:36.740832",
      "apogee_km": 540.5795345254674,
      "perigee_km": 538.807739742685,
      "latitude_deg": 6.643370081583959,
      "longitude_deg": 18.67415648000315,
      "semi_major_axis_km": 6917.830637134076,
      "eccentricity": 0.00012806,
      "inclination_deg": 53.2164,
      "raan_deg": 127.9873,
      "arg_perigee_deg": 90.2413,
      "mean_anomaly_deg": 269.8726,
      "mean_motion_rev_day": 15.08856277
    }
  ]
}